STARLINK-31504          
1 59303U 24056H   26068.43212827  .00000271  00000+0  19372-4 0  9993
2 59303  43.0012 232.2747 0001224 274.4841  85.5871 15.27566705111111
TEVEL2-3                
1 63218U 25052J   26068.64540225  .00020365  00000+0  69446-3 0  9991
2 63218  97.3994 324.7775 0004761 105.7353 254.4413 15.30377031 54855
